STARLINK-5397           
1 54871U 22177BD  25225.25296286  .00000066  00000+0  19972-4 0  9993
2 54871  43.0032 172.6801 0000943 272.9133  87.1601 15.02532742145753
STARLINK-5390           
1 54872U 22177BE  25225.56870727  .00001025  00000+0  90979-4 0  9998
2 54872  43.0027 170.7750 0001155 262.7155  97.3556 15.02523860145806
STARLINK-5091           
1 54873U 22177BF  25225.57091935  .00000006  00000+0  15499-4 0  9998
2 54873  43.0030 170.7660 0001079 269.4894  90.5825 15.02538249145801
STARLINK-5277           
1 55269U 23010A   25224.92969104 -.00000056  00000+0  31028-5 0  9998
2 55269  69.9980 210.8972 0003324 268.5500  91.5279 14.98330834141795
STARLINK-5306           
1 55271U 23010C   25224.93388533  .00000743  00000+0  70099-4 0  9995
2 55271  69.9989 210.9097 0002980 271.2030  88.8787 14.98318374141510
STARLINK-5310           
1 55272U 23010D   25225.25096880  .00000176  00000+0  22582-4 0  9997
2 55272  69.9985 210.0139 0003410 268.9799  91.0969 14.98331376141569
STARLINK-5291           
1 55273U 23010E   25225.35944063 -.00004266  00000+0 -34987-3 0  9991
2 55273  70.0001 209.5883 0003578 264.5262  95.5489 14.98334807141583
STARLINK-5236           
1 55274U 23010F   25224.92113881  .00000933  00000+0  85976-4 0  9990
2 55274  69.9994 190.9978 0003500 261.8626  98.2136 14.98318531142002
STARLINK-5260           
1 55275U 23010G   25225.31349669  .00000613  00000+0  59181-4 0  9994
2 55275  69.9998 189.9598 0003044 270.0285  90.0525 14.98330946142061
STARLINK-5261           
1 55276U 23010H   25225.31333125  .00000198  00000+0  24403-4 0  9992
2 55276  69.9999 189.9580 0003542 263.9911  96.0844 14.98330397142053
STARLINK-5299           
1 55277U 23010J   25225.25514220 -.00000191  00000+0 -81685-5 0  9994
2 55277  69.9989 210.0254 0003667 266.5896  93.4844 14.98330283141566
STARLINK-5289           
1 55278U 23010K   25225.37200860 -.00004375  00000+0 -35941-3 0  9990
2 55278  69.9994 209.6274 0003189 269.4241  90.6553 14.98293004141570
STARLINK-5331           
1 55280U 23010M   25225.40953250  .00000609  00000+0  58793-4 0  9990
2 55280  69.9987 209.7501 0003176 266.1960  93.8836 14.98332118141576
STARLINK-5298           
1 55281U 23010N   25225.24679214  .00000245  00000+0  28360-4 0  9991
2 55281  69.9988 209.9947 0004065 261.4851  98.5847 14.98331306141559
STARLINK-5330           
1 55282U 23010P   25225.35543419  .00000149  00000+0  20258-4 0  9992
2 55282  69.9997 209.5673 0003910 265.9228  94.1484 14.98329806141570
STARLINK-5317           
1 55283U 23010Q   25225.37613825  .00000415  00000+0  42556-4 0  9995
2 55283  69.9990 209.6433 0003587 267.8036  92.2712 14.98331676141578
STARLINK-5337           
1 55284U 23010R   25225.58335648 -.00047002  00000+0 -39544-2 0  9999
2 55284  70.0012 208.9904 0003322 272.5500 237.3629 14.98362862  5814
