[{"OBJECT_NAME":"STARLINK-5397","OBJECT_ID":"2022-177BD","EPOCH":"2025-08-13T06:04:15.991104","MEAN_MOTION":15.02532742,"ECCENTRICITY":9.43e-5,"INCLINATION":43.0032,"RA_OF_ASC_NODE":172.6801,"ARG_OF_PERICENTER":272.9133,"MEAN_ANOMALY":87.1601,"EPHEMERIS_TYPE":0,"CLASSIFICATION_TYPE":"U","NORAD_CAT_ID":54871,"ELEMENT_SET_NO":999,"REV_AT_EPOCH":14575,"BSTAR":1.9972e-5,"MEAN_MOTION_DOT":6.6e-7,"MEAN_MOTION_DDOT":0},{"OBJECT_NAME":"STARLINK-5390","OBJECT_ID":"2022-177BE","EPOCH":"2025-08-13T13:38:56.308128","MEAN_MOTION":15.0252386,"ECCENTRICITY":0.0001155,"INCLINATION":43.0027,"RA_OF_ASC_NODE":170.775,"ARG_OF_PERICENTER":262.7155,"MEAN_ANOMALY":97.3556,"EPHEMERIS_TYPE":0,"CLASSIFICATION_TYPE":"U","NORAD_CAT_ID":54872,"ELEMENT_SET_NO":999,"REV_AT_EPOCH":14580,"BSTAR":9.0979e-5,"MEAN_MOTION_DOT":1.025e-5,"MEAN_MOTION_DDOT":0},{"OBJECT_NAME":"STARLINK-5091","OBJECT_ID":"2022-177BF","EPOCH":"2025-08-13T13:42:07.431840","MEAN_MOTION":15.02538249,"ECCENTRICITY":0.0001079,"INCLINATION":43.003,"RA_OF_ASC_NODE":170.766,"ARG_OF_PERICENTER":269.4894,"MEAN_ANOMALY":90.5825,"EPHEMERIS_TYPE":0,"CLASSIFICATION_TYPE":"U","NORAD_CAT_ID":54873,"ELEMENT_SET_NO":999,"REV_AT_EPOCH":14580,"BSTAR":1.5499e-5,"MEAN_MOTION_DOT":6.0e-8,"MEAN_MOTION_DDOT":0},{"OBJECT_NAME":"STARLINK-5277","OBJECT_ID":"2023-010A","EPOCH":"2025-08-12T22:18:45.305856","MEAN_MOTION":14.98330834,"ECCENTRICITY":0.0003324,"INCLINATION":69.998,"RA_OF_ASC_NODE":210.8972,"ARG_OF_PERICENTER":268.55,"MEAN_ANOMALY":91.5279,"EPHEMERIS_TYPE":0,"CLASSIFICATION_TYPE":"U","NORAD_CAT_ID":55269,"ELEMENT_SET_NO":999,"REV_AT_EPOCH":14179,"BSTAR":3.1028e-6,"MEAN_MOTION_DOT":-5.6e-7,"MEAN_MOTION_DDOT":0},{"OBJECT_NAME":"STARLINK-5306","OBJECT_ID":"2023-010C","EPOCH":"2025-08-12T22:24:47.692512","MEAN_MOTION":14.98318374,"ECCENTRICITY":0.000298,"INCLINATION":69.9989,"RA_OF_ASC_NODE":210.9097,"ARG_OF_PERICENTER":271.203,"MEAN_ANOMALY":88.8787,"EPHEMERIS_TYPE":0,"CLASSIFICATION_TYPE":"U","NORAD_CAT_ID":55271,"ELEMENT_SET_NO":999,"REV_AT_EPOCH":14151,"BSTAR":7.0099e-5,"MEAN_MOTION_DOT":7.43e-6,"MEAN_MOTION_DDOT":0},{"OBJECT_NAME":"STARLINK-5310","OBJECT_ID":"2023-010D","EPOCH":"2025-08-13T06:01:23.704320","MEAN_MOTION":14.98331376,"ECCENTRICITY":0.000341,"INCLINATION":69.9985,"RA_OF_ASC_NODE":210.0139,"ARG_OF_PERICENTER":268.9799,"MEAN_ANOMALY":91.0969,"EPHEMERIS_TYPE":0,"CLASSIFICATION_TYPE":"U","NORAD_CAT_ID":55272,"ELEMENT_SET_NO":999,"REV_AT_EPOCH":14156,"BSTAR":2.2582e-5,"MEAN_MOTION_DOT":1.76e-6,"MEAN_MOTION_DDOT":0},{"OBJECT_NAME":"STARLINK-5291","OBJECT_ID":"2023-010E","EPOCH":"2025-08-13T08:37:35.670432","MEAN_MOTION":14.98334807,"ECCENTRICITY":0.0003578,"INCLINATION":70.0001,"RA_OF_ASC_NODE":209.5883,"ARG_OF_PERICENTER":264.5262,"MEAN_ANOMALY":95.5489,"EPHEMERIS_TYPE":0,"CLASSIFICATION_TYPE":"U","NORAD_CAT_ID":55273,"ELEMENT_SET_NO":999,"REV_AT_EPOCH":14158,"BSTAR":-0.00034987,"MEAN_MOTION_DOT":-4.266e-5,"MEAN_MOTION_DDOT":0},{"OBJECT_NAME":"STARLINK-5236","OBJECT_ID":"2023-010F","EPOCH":"2025-08-12T22:06:26.393184","MEAN_MOTION":14.98318531,"ECCENTRICITY":0.00035,"INCLINATION":69.9994,"RA_OF_ASC_NODE":190.9978,"ARG_OF_PERICENTER":261.8626,"MEAN_ANOMALY":98.2136,"EPHEMERIS_TYPE":0,"CLASSIFICATION_TYPE":"U","NORAD_CAT_ID":55274,"ELEMENT_SET_NO":999,"REV_AT_EPOCH":14200,"BSTAR":8.5976e-5,"MEAN_MOTION_DOT":9.33e-6,"MEAN_MOTION_DDOT":0},{"OBJECT_NAME":"STARLINK-5260","OBJECT_ID":"2023-010G","EPOCH":"2025-08-13T07:31:26.114016","MEAN_MOTION":14.98330946,"ECCENTRICITY":0.0003044,"INCLINATION":69.9998,"RA_OF_ASC_NODE":189.9598,"ARG_OF_PERICENTER":270.0285,"MEAN_ANOMALY":90.0525,"EPHEMERIS_TYPE":0,"CLASSIFICATION_TYPE":"U","NORAD_CAT_ID":55275,"ELEMENT_SET_NO":999,"REV_AT_EPOCH":14206,"BSTAR":5.9181e-5,"MEAN_MOTION_DOT":6.13e-6,"MEAN_MOTION_DDOT":0},{"OBJECT_NAME":"STARLINK-5261","OBJECT_ID":"2023-010H","EPOCH":"2025-08-13T07:31:11.820000","MEAN_MOTION":14.98330397,"ECCENTRICITY":0.0003542,"INCLINATION":69.9999,"RA_OF_ASC_NODE":189.958,"ARG_OF_PERICENTER":263.9911,"MEAN_ANOMALY":96.0844,"EPHEMERIS_TYPE":0,"CLASSIFICATION_TYPE":"U","NORAD_CAT_ID":55276,"ELEMENT_SET_NO":999,"REV_AT_EPOCH":14205,"BSTAR":2.4403e-5,"MEAN_MOTION_DOT":1.98e-6,"MEAN_MOTION_DDOT":0},{"OBJECT_NAME":"STARLINK-5299","OBJECT_ID":"2023-010J","EPOCH":"2025-08-13T06:07:24.286080","MEAN_MOTION":14.98330283,"ECCENTRICITY":0.0003667,"INCLINATION":69.9989,"RA_OF_ASC_NODE":210.0254,"ARG_OF_PERICENTER":266.5896,"MEAN_ANOMALY":93.4844,"EPHEMERIS_TYPE":0,"CLASSIFICATION_TYPE":"U","NORAD_CAT_ID":55277,"ELEMENT_SET_NO":999,"REV_AT_EPOCH":14156,"BSTAR":-8.1685e-6,"MEAN_MOTION_DOT":-1.91e-6,"MEAN_MOTION_DDOT":0},{"OBJECT_NAME":"STARLINK-5289","OBJECT_ID":"2023-010K","EPOCH":"2025-08-13T08:55:41.543040","MEAN_MOTION":14.98293004,"ECCENTRICITY":0.0003189,"INCLINATION":69.9994,"RA_OF_ASC_NODE":209.6274,"ARG_OF_PERICENTER":269.4241,"MEAN_ANOMALY":90.6553,"EPHEMERIS_TYPE":0,"CLASSIFICATION_TYPE":"U","NORAD_CAT_ID":55278,"ELEMENT_SET_NO":999,"REV_AT_EPOCH":14157,"BSTAR":-0.00035941,"MEAN_MOTION_DOT":-4.375e-5,"MEAN_MOTION_DDOT":0},{"OBJECT_NAME":"STARLINK-5331","OBJECT_ID":"2023-010M","EPOCH":"2025-08-13T09:49:43.608000","MEAN_MOTION":14.98332118,"ECCENTRICITY":0.0003176,"INCLINATION":69.9987,"RA_OF_ASC_NODE":209.7501,"ARG_OF_PERICENTER":266.196,"MEAN_ANOMALY":93.8836,"EPHEMERIS_TYPE":0,"CLASSIFICATION_TYPE":"U","NORAD_CAT_ID":55280,"ELEMENT_SET_NO":999,"REV_AT_EPOCH":14157,"BSTAR":5.8793e-5,"MEAN_MOTION_DOT":6.09e-6,"MEAN_MOTION_DDOT":0},{"OBJECT_NAME":"STARLINK-5298","OBJECT_ID":"2023-010N","EPOCH":"2025-08-13T05:55:22.840896","MEAN_MOTION":14.98331306,"ECCENTRICITY":0.0004065,"INCLINATION":69.9988,"RA_OF_ASC_NODE":209.9947,"ARG_OF_PERICENTER":261.4851,"MEAN_ANOMALY":98.5847,"EPHEMERIS_TYPE":0,"CLASSIFICATION_TYPE":"U","NORAD_CAT_ID":55281,"ELEMENT_SET_NO":999,"REV_AT_EPOCH":14155,"BSTAR":2.836e-5,"MEAN_MOTION_DOT":2.45e-6,"MEAN_MOTION_DDOT":0},{"OBJECT_NAME":"STARLINK-5330","OBJECT_ID":"2023-010P","EPOCH":"2025-08-13T08:31:49.514016","MEAN_MOTION":14.98329806,"ECCENTRICITY":0.000391,"INCLINATION":69.9997,"RA_OF_ASC_NODE":209.5673,"ARG_OF_PERICENTER":265.9228,"MEAN_ANOMALY":94.1484,"EPHEMERIS_TYPE":0,"CLASSIFICATION_TYPE":"U","NORAD_CAT_ID":55282,"ELEMENT_SET_NO":999,"REV_AT_EPOCH":14157,"BSTAR":2.0258e-5,"MEAN_MOTION_DOT":1.49e-6,"MEAN_MOTION_DDOT":0},{"OBJECT_NAME":"STARLINK-5317","OBJECT_ID":"2023-010Q","EPOCH":"2025-08-13T09:01:38.344800","MEAN_MOTION":14.98331676,"ECCENTRICITY":0.0003587,"INCLINATION":69.999,"RA_OF_ASC_NODE":209.6433,"ARG_OF_PERICENTER":267.8036,"MEAN_ANOMALY":92.2712,"EPHEMERIS_TYPE":0,"CLASSIFICATION_TYPE":"U","NORAD_CAT_ID":55283,"ELEMENT_SET_NO":999,"REV_AT_EPOCH":14157,"BSTAR":4.2556e-5,"MEAN_MOTION_DOT":4.15e-6,"MEAN_MOTION_DDOT":0},{"OBJECT_NAME":"STARLINK-5337","OBJECT_ID":"2023-010R","EPOCH":"2025-08-13T14:00:01.999872","MEAN_MOTION":14.98362862,"ECCENTRICITY":0.0003322,"INCLINATION":70.0012,"RA_OF_ASC_NODE":208.9904,"ARG_OF_PERICENTER":272.55,"MEAN_ANOMALY":237.3629,"EPHEMERIS_TYPE":0,"CLASSIFICATION_TYPE":"U","NORAD_CAT_ID":55284,"ELEMENT_SET_NO":999,"REV_AT_EPOCH":581,"BSTAR":-0.0039544,"MEAN_MOTION_DOT":-0.00047002,"MEAN_MOTION_DDOT":0}]
